CCSDS_OMM_VERS = 2.0
CREATION_DATE  = 
ORIGINATOR     = 

OBJECT_NAME    = SL-14 R/B
OBJECT_ID      = 1991-042B
CENTER_NAME    = EARTH
REF_FRAME      = TEME
TIME_SYSTEM    = UTC
MEAN_ELEMENT_THEORY = SGP/SGP4

EPOCH          = 2026-03-03T19:34:15.525408
MEAN_MOTION    = 14.81822532
ECCENTRICITY   = .0015611
INCLINATION    = 82.4912
RA_OF_ASC_NODE = 225.6910
ARG_OF_PERICENTER = 259.6022
MEAN_ANOMALY   = 100.3432

EPHEMERIS_TYPE = 0
CLASSIFICATION_TYPE = U
NORAD_CAT_ID   = 21423
ELEMENT_SET_NO = 999
REV_AT_EPOCH   = 85220
BSTAR          = .82679E-4
MEAN_MOTION_DOT = .677E-5
MEAN_MOTION_DDOT = 0

CCSDS_OMM_VERS = 2.0
CREATION_DATE  = 
ORIGINATOR     = 

OBJECT_NAME    = ERS-1
OBJECT_ID      = 1991-050A
CENTER_NAME    = EARTH
REF_FRAME      = TEME
TIME_SYSTEM    = UTC
MEAN_ELEMENT_THEORY = SGP/SGP4

EPOCH          = 2026-03-04T01:36:22.738176
MEAN_MOTION    = 14.39444371
ECCENTRICITY   = .0031323
INCLINATION    = 98.7885
RA_OF_ASC_NODE = 81.1601
ARG_OF_PERICENTER = 217.3678
MEAN_ANOMALY   = 142.5330

EPHEMERIS_TYPE = 0
CLASSIFICATION_TYPE = U
NORAD_CAT_ID   = 21574
ELEMENT_SET_NO = 999
REV_AT_EPOCH   = 81492
BSTAR          = .15629E-3
MEAN_MOTION_DOT = .443E-5
MEAN_MOTION_DDOT = 0

CCSDS_OMM_VERS = 2.0
CREATION_DATE  = 
ORIGINATOR     = 

OBJECT_NAME    = ARIANE 40 R/B
OBJECT_ID      = 1991-050F
CENTER_NAME    = EARTH
REF_FRAME      = TEME
TIME_SYSTEM    = UTC
MEAN_ELEMENT_THEORY = SGP/SGP4

EPOCH          = 2026-03-04T03:09:00.702432
MEAN_MOTION    = 14.42889010
ECCENTRICITY   = .0004363
INCLINATION    = 98.2024
RA_OF_ASC_NODE = 115.5761
ARG_OF_PERICENTER = 93.2924
MEAN_ANOMALY   = 266.8765

EPHEMERIS_TYPE = 0
CLASSIFICATION_TYPE = U
NORAD_CAT_ID   = 21610
ELEMENT_SET_NO = 999
REV_AT_EPOCH   = 81819
BSTAR          = .13953E-3
MEAN_MOTION_DOT = .424E-5
MEAN_MOTION_DDOT = 0

CCSDS_OMM_VERS = 2.0
CREATION_DATE  = 
ORIGINATOR     = 

OBJECT_NAME    = INTERCOSMOS 25
OBJECT_ID      = 1991-086A
CENTER_NAME    = EARTH
REF_FRAME      = TEME
TIME_SYSTEM    = UTC
MEAN_ELEMENT_THEORY = SGP/SGP4

EPOCH          = 2026-03-04T03:02:10.927968
MEAN_MOTION    = 12.11982538
ECCENTRICITY   = .1487059
INCLINATION    = 82.6063
RA_OF_ASC_NODE = 313.3703
ARG_OF_PERICENTER = 128.9167
MEAN_ANOMALY   = 245.4246

EPHEMERIS_TYPE = 0
CLASSIFICATION_TYPE = U
NORAD_CAT_ID   = 21819
ELEMENT_SET_NO = 999
REV_AT_EPOCH   = 49601
BSTAR          = .33299E-3
MEAN_MOTION_DOT = .1733E-4
MEAN_MOTION_DDOT = 0

CCSDS_OMM_VERS = 2.0
CREATION_DATE  = 
ORIGINATOR     = 

OBJECT_NAME    = SL-8 R/B
OBJECT_ID      = 1992-008B
CENTER_NAME    = EARTH
REF_FRAME      = TEME
TIME_SYSTEM    = UTC
MEAN_ELEMENT_THEORY = SGP/SGP4

EPOCH          = 2026-03-04T03:13:31.409184
MEAN_MOTION    = 13.75969799
ECCENTRICITY   = .003527
INCLINATION    = 82.9227
RA_OF_ASC_NODE = 271.9119
ARG_OF_PERICENTER = 148.4698
MEAN_ANOMALY   = 331.0453

EPHEMERIS_TYPE = 0
CLASSIFICATION_TYPE = U
NORAD_CAT_ID   = 21876
ELEMENT_SET_NO = 999
REV_AT_EPOCH   = 70865
BSTAR          = -.10063E-4
MEAN_MOTION_DOT = .6E-7
MEAN_MOTION_DDOT = 0

CCSDS_OMM_VERS = 2.0
CREATION_DATE  = 
ORIGINATOR     = 

OBJECT_NAME    = SL-8 R/B
OBJECT_ID      = 1992-020B
CENTER_NAME    = EARTH
REF_FRAME      = TEME
TIME_SYSTEM    = UTC
MEAN_ELEMENT_THEORY = SGP/SGP4

EPOCH          = 2026-03-03T19:28:47.676288
MEAN_MOTION    = 13.75548716
ECCENTRICITY   = .0027895
INCLINATION    = 82.9340
RA_OF_ASC_NODE = 158.1246
ARG_OF_PERICENTER = 315.8977
MEAN_ANOMALY   = 161.2475

EPHEMERIS_TYPE = 0
CLASSIFICATION_TYPE = U
NORAD_CAT_ID   = 21938
ELEMENT_SET_NO = 999
REV_AT_EPOCH   = 70032
BSTAR          = .86285E-4
MEAN_MOTION_DOT = .98E-6
MEAN_MOTION_DDOT = 0

CCSDS_OMM_VERS = 2.0
CREATION_DATE  = 
ORIGINATOR     = 

OBJECT_NAME    = USA 81
OBJECT_ID      = 1992-023A
CENTER_NAME    = EARTH
REF_FRAME      = TEME
TIME_SYSTEM    = UTC
MEAN_ELEMENT_THEORY = SGP/SGP4

EPOCH          = 2026-03-04T03:21:39.620160
MEAN_MOTION    = 14.32365935
ECCENTRICITY   = .0002603
INCLINATION    = 85.0095
RA_OF_ASC_NODE = 134.6425
ARG_OF_PERICENTER = 81.9295
MEAN_ANOMALY   = 278.2193

EPHEMERIS_TYPE = 0
CLASSIFICATION_TYPE = U
NORAD_CAT_ID   = 21949
ELEMENT_SET_NO = 999
REV_AT_EPOCH   = 9399
BSTAR          = .86106E-4
MEAN_MOTION_DOT = .252E-5
MEAN_MOTION_DDOT = 0

CCSDS_OMM_VERS = 2.0
CREATION_DATE  = 
ORIGINATOR     = 

OBJECT_NAME    = COSMOS 2219
OBJECT_ID      = 1992-076A
CENTER_NAME    = EARTH
REF_FRAME      = TEME
TIME_SYSTEM    = UTC
MEAN_ELEMENT_THEORY = SGP/SGP4

EPOCH          = 2026-03-04T03:28:39.935424
MEAN_MOTION    = 14.14089647
ECCENTRICITY   = .0019304
INCLINATION    = 71.0620
RA_OF_ASC_NODE = 29.6579
ARG_OF_PERICENTER = 214.4562
MEAN_ANOMALY   = 145.5310

EPHEMERIS_TYPE = 0
CLASSIFICATION_TYPE = U
NORAD_CAT_ID   = 22219
ELEMENT_SET_NO = 999
REV_AT_EPOCH   = 71759
BSTAR          = .18063E-3
MEAN_MOTION_DOT = .297E-5
MEAN_MOTION_DDOT = 0

CCSDS_OMM_VERS = 2.0
CREATION_DATE  = 
ORIGINATOR     = 

OBJECT_NAME    = SL-16 R/B
OBJECT_ID      = 1992-076B
CENTER_NAME    = EARTH
REF_FRAME      = TEME
TIME_SYSTEM    = UTC
MEAN_ELEMENT_THEORY = SGP/SGP4

EPOCH          = 2026-03-03T20:19:08.336928
MEAN_MOTION    = 14.16860043
ECCENTRICITY   = .0010605
INCLINATION    = 70.9999
RA_OF_ASC_NODE = 200.6805
ARG_OF_PERICENTER = 107.2129
MEAN_ANOMALY   = 4.0235

EPHEMERIS_TYPE = 0
CLASSIFICATION_TYPE = U
NORAD_CAT_ID   = 22220
ELEMENT_SET_NO = 999
REV_AT_EPOCH   = 72100
BSTAR          = .4797E-4
MEAN_MOTION_DOT = .48E-6
MEAN_MOTION_DDOT = 0

CCSDS_OMM_VERS = 2.0
CREATION_DATE  = 
ORIGINATOR     = 

OBJECT_NAME    = COSMOS 2221
OBJECT_ID      = 1992-080A
CENTER_NAME    = EARTH
REF_FRAME      = TEME
TIME_SYSTEM    = UTC
MEAN_ELEMENT_THEORY = SGP/SGP4

EPOCH          = 2026-03-04T02:04:30.372096
MEAN_MOTION    = 14.96175748
ECCENTRICITY   = .0013542
INCLINATION    = 82.5016
RA_OF_ASC_NODE = 284.4495
ARG_OF_PERICENTER = 206.5778
MEAN_ANOMALY   = 153.4751

EPHEMERIS_TYPE = 0
CLASSIFICATION_TYPE = U
NORAD_CAT_ID   = 22236
ELEMENT_SET_NO = 999
REV_AT_EPOCH   = 77995
BSTAR          = .24463E-3
MEAN_MOTION_DOT = .2785E-4
MEAN_MOTION_DDOT = 0

CCSDS_OMM_VERS = 2.0
CREATION_DATE  = 
ORIGINATOR     = 

OBJECT_NAME    = SL-16 R/B
OBJECT_ID      = 1992-093B
CENTER_NAME    = EARTH
REF_FRAME      = TEME
TIME_SYSTEM    = UTC
MEAN_ELEMENT_THEORY = SGP/SGP4

EPOCH          = 2026-03-04T03:45:26.784000
MEAN_MOTION    = 14.15449471
ECCENTRICITY   = .0006315
INCLINATION    = 71.0239
RA_OF_ASC_NODE = 15.8802
ARG_OF_PERICENTER = 299.5558
MEAN_ANOMALY   = 60.4935

EPHEMERIS_TYPE = 0
CLASSIFICATION_TYPE = U
NORAD_CAT_ID   = 22285
ELEMENT_SET_NO = 999
REV_AT_EPOCH   = 71237
BSTAR          = -.5022E-4
MEAN_MOTION_DOT = -.146E-5
MEAN_MOTION_DDOT = 0

CCSDS_OMM_VERS = 2.0
CREATION_DATE  = 
ORIGINATOR     = 

OBJECT_NAME    = COSMOS 2228
OBJECT_ID      = 1992-094A
CENTER_NAME    = EARTH
REF_FRAME      = TEME
TIME_SYSTEM    = UTC
MEAN_ELEMENT_THEORY = SGP/SGP4

EPOCH          = 2026-03-04T02:33:24.045120
MEAN_MOTION    = 14.97157662
ECCENTRICITY   = .001716
INCLINATION    = 82.5145
RA_OF_ASC_NODE = 242.6573
ARG_OF_PERICENTER = 324.5861
MEAN_ANOMALY   = 35.4221

EPHEMERIS_TYPE = 0
CLASSIFICATION_TYPE = U
NORAD_CAT_ID   = 22286
ELEMENT_SET_NO = 999
REV_AT_EPOCH   = 77522
BSTAR          = .31769E-3
MEAN_MOTION_DOT = .3705E-4
MEAN_MOTION_DDOT = 0

